QZS-1R                  
1 49336U 21096A   23292.33035447 -.00000187  00000+0  00000+0 0  9995
2 49336  35.4466  94.2258 0746957 270.0769 277.3334  1.00277252  7264
